{
  "norad_id": 49258,
  "name": "SHIYAN-10 01 (SY-10 01)",
  "history": [
    {
      "epoch": "2026-03-19T16:11:52.719072Z",
      "apogee_km": 38677.205581090304,
      "perigee_km": 1672.5185677165737,
      "latitude_deg": 0.00022145425140036865,
      "longitude_deg": 170.19244541182525,
      "height_km": 7292.939377484382,
      "semi_major_axis_km": 26552.99907440344,
      "eccentricity": 0.69680805,
      "inclination_deg": 63.1045,
      "raan_deg": 230.4083,
      "arg_perigee_deg": 269.9215,
      "mean_anomaly_deg": 17.1698,
      "mean_motion_rev_day": 2.00646871
    }
  ]
}